S-NET B                 
1 43187U 18014H   22209.71010137  .00000236  00000+0  24849-4 0  9993
2 43187  97.6549 114.6093 0010997 151.1092 209.0741 14.98036661245091
S-NET A                 
1 43188U 18014J   22209.91078229  .00000211  00000+0  22699-4 0  9996
2 43188  97.6553 114.8718 0011003 150.7060 209.4782 14.98036242245120
S-NET C                 
1 43189U 18014K   22209.71116662  .00000213  00000+0  22913-4 0  9990
2 43189  97.6547 114.5985 0010962 151.3333 208.8494 14.98032893243646
FENGMANIU-1 (FMN-1)     
1 43192U 18015A   22209.97507218  .00018980  00000+0  47228-3 0  9999
2 43192  97.5383 356.2699 0009720 237.9238 240.6216 15.40275409249832
SHAONIAN XING           
1 43199U 18015H   22209.97878483  .00010628  00000+0  31089-3 0  9990
2 43199  97.5182 351.0747 0011567 249.6468 256.3440 15.35387292249819
LUOJIA-1 01             
1 43485U 18048B   22209.79062256  .00000819  00000+0  12213-3 0  9996
2 43485  97.9341 290.3852 0012572  68.8974 291.3562 14.77432950223970
SURFSAT                 
1 43614U 18070B   22209.52903648  .00028055  00000+0  37141-3 0  9994
2 43614  93.0287 116.2283 0009241 191.7688 168.3362 15.58166859217450
CP7 (DAVE)              
1 43615U 18070C   22209.70279672  .00023846  00000+0  33463-3 0  9994
2 43615  93.0270 116.1140 0009353 196.3112 163.7852 15.56613856217445
ELFIN-B                 
1 43616U 18070D   22209.84628240  .00102738  00000+0  65156-3 0  9991
2 43616  93.0166 117.7190 0010188 162.1607 198.0027 15.76159263217859
ELFIN-A                 
1 43617U 18070E   22209.32738310  .00141984  00000+0  75149-3 0  9994
2 43617  93.0232 118.9604 0010474 155.8249 204.3521 15.80117786217833
CZ-4B R/B               
1 43656U 18081B   22209.36185629  .00000009  00000+0  20247-4 0  9994
2 43656  99.4030 346.4997 0208659  26.9046 334.2774 14.30589112196202
CUBEBEL-1 (BSUSAT-1)    
1 43666U 18083E   22209.77139402  .00006063  00000+0  25367-3 0  9993
2 43666  97.4180 237.9974 0013040 180.5263 269.6981 15.23869573207773
CHANGSHAGAOXIN (TY 4-01)
1 43669U 18083H   22209.93172751  .00005631  00000+0  24740-3 0  9992
2 43669  97.4135 234.0076 0009794 174.7756 303.6714 15.22270563207610
TEN-KOH                 
1 43677U 18084G   22209.61427071  .00000542  00000+0  60324-4 0  9990
2 43677  97.9694 340.0518 0016859 132.5530 227.7115 14.91191689203810
DIWATA-2B               
1 43678U 18084H   22209.82324729  .00000872  00000+0  91236-4 0  9992
2 43678  97.9757 343.5862 0010557 142.2021 217.9910 14.92236985204021
STARS-AO                
1 43679U 18084J   22209.32264840  .00001527  00000+0  14982-3 0  9995
2 43679  97.9797 345.0994 0009679 147.8702 212.3109 14.93712676204047
AUTCUBE 2               
1 43681U 18084K   22209.82599072  .00000633  00000+0  66507-4 0  9999
2 43681  97.9759 344.1996 0010164 141.7410 218.4532 14.93054504204024
IRVINE01                
1 43693U 18088D   22209.49102671  .00023535  00000+0  57811-3 0  9997
2 43693  85.0283 282.9690 0009085 316.6017  43.4519 15.40491088206537
ES'HAIL 2               
1 43700U 18090A   22208.71243223  .00000146  00000+0  00000+0 0  9999
2 43700   0.0189  70.2644 0001712 111.2857  46.1252  1.00273782 13434
FACSAT-1                
1 43721U 18096C   22209.79118644  .00012652  00000+0  34398-3 0  9991
2 43721  97.3500 289.6027 0011751 263.9910 218.6566 15.37617344204328
CENTAURI-2              
1 43722U 18096D   22209.47955987  .00016077  00000+0  38664-3 0  9991
2 43722  97.3556 291.5063 0011005 258.6337 101.3674 15.41327508204398
3CAT-1                  
1 43728U 18096K   22209.74192722  .00014716  00000+0  35383-3 0  9990
2 43728  97.3564 292.5324 0010771 259.9387 100.0645 15.41356925204470
INNOSAT-2               
1 43738U 18096V   22209.90256432  .00037879  00000+0  60404-3 0  9995
2 43738  97.3637 299.7108 0011745 242.5081 209.6180 15.53062934204930
REAKTOR HELLO WORLD     
1 43743U 18096AA  22209.48500077  .00007243  00000+0  21628-3 0  9998
2 43743  97.3526 289.1999 0013112 270.8869  89.0872 15.34834618204250
ELYSIUM STAR 2 & LFF    
1 43760U 18099C   22209.45694528  .00003041  00000+0  25556-3 0  9998
2 43760  97.6264 277.1149 0014522 124.9716 235.2872 14.98961051199261
2018-099D               
1 43761U 18099D   22209.40734447  .00001395  00000+0  12922-3 0  9992
2 43761  97.6208 275.0383 0015925 129.0853 231.1786 14.95968082199147
AISTECHSAT 2            
1 43768U 18099L   22209.70943038  .00000951  00000+0  89936-4 0  9997
2 43768  97.6148 273.8320 0012456 126.5492 233.6878 14.95885720198854
FOX-1CLIFF (AO-95)      
1 43770U 18099N   22209.44379516  .00001257  00000+0  11512-3 0  9999
2 43770  97.6185 274.7293 0015162 135.0695 225.1757 14.96606698199145
RANGE-A                 
1 43772U 18099Q   22209.42050400  .00001453  00000+0  13001-3 0  9990
2 43772  97.6313 276.4787 0015149 120.8738 239.3976 14.97291571199165
RANGE-B                 
1 43773U 18099R   22209.44447578  .00001004  00000+0  94008-4 0  9998
2 43773  97.6109 273.5464 0014550 123.0730 237.1891 14.96154623199124
2018-099T               
1 43775U 18099T   22209.70540798  .00000526  00000+0  51737-4 0  9997
2 43775  97.6187 275.0753 0015524 126.2203 234.0456 14.96108507199169
MOVE-II                 
1 43780U 18099Y   22209.70080965  .00001631  00000+0  14275-3 0  9991
2 43780  97.6225 276.2052 0013623 129.3108 230.9324 14.98007755199231
SNUSAT-2                
1 43782U 18099AA  22209.41959160  .00001070  00000+0  98345-4 0  9991
2 43782  97.6196 275.1787 0013754 120.0172 240.2417 14.96768006199167
SNUGLITE                
1 43784U 18099AC  22209.85225889  .00001504  00000+0  13543-3 0  9993
2 43784  97.6147 275.2356 0015977 127.4197 232.8482 14.96989909199251
ITASAT 1                
1 43786U 18099AE  22209.43337613  .00000688  00000+0  65075-4 0  9998
2 43786  97.6215 275.6598 0015850 127.9092 232.3565 14.96732176199181
KAZSCISAT-1             
1 43787U 18099AF  22209.41642025  .00001691  00000+0  14777-3 0  9990
2 43787  97.6151 274.8684 0015029 121.5990 238.6702 14.98012890199237
EAGLET-I                
1 43790U 18099AJ  22209.72525749  .00001139  00000+0  10405-3 0  9992
2 43790  97.6204 276.4819 0014363 130.0295 230.2190 14.96877376198965
ESEO                    
1 43792U 18099AL  22209.87683865  .00000742  00000+0  70569-4 0  9991
2 43792  97.6165 275.7870 0014510 126.3125 233.9439 14.96263434199024
CSIM-FD                 
1 43793U 18099AM  22209.72234182  .00002206  00000+0  18809-3 0  9995
2 43793  97.6223 277.1601 0013886 123.8118 236.4429 14.98681152199061
ASTROCAST 0.1           
1 43798U 18099AS  22209.42034805  .00001573  00000+0  13836-3 0  9998
2 43798  97.6236 276.7070 0013736 108.2152 252.0567 14.97870472199245
JY1SAT (JO-97)          
1 43803U 18099AX  22209.70444943  .00001086  00000+0  98460-4 0  9990
2 43803  97.6174 275.6913 0015642 126.5424 233.7241 14.97264750199241
SUOMI-100               
1 43804U 18099AY  22209.85874632  .00001700  00000+0  15170-3 0  9998
2 43804  97.6169 275.7549 0016198 126.2221 234.0501 14.97157687199277
AL-FARABI 2             
1 43805U 18099AZ  22209.89644540  .00002036  00000+0  17793-3 0  9992
2 43805  97.6206 276.3309 0015964 123.6377 236.6356 14.97785904199303
CENTAURI-1              
1 43809U 18099BD  22209.69911674  .00000498  00000+0  48292-4 0  9998
2 43809  97.6187 275.9034 0015904 127.5031 232.7640 14.96852646198948
CHOMPTT                 
1 43855U 18104G   22209.44287806  .00005165  00000+0  18610-3 0  9998
2 43855  85.0342  23.8051 0017344  86.9055 273.4175 15.28142659200981
DAVINCI                 
1 43857U 18104J   22209.50337604  .00024446  00000+0  60904-3 0  9995
2 43857  85.0251  21.2681 0011194 102.9108 257.3395 15.40035971201177
UWE-4                   
1 43880U 18111E   22209.47398103  .00001499  00000+0  13058-3 0  9997
2 43880  97.6638 115.0683 0012133 176.2689 183.8627 14.98343144195840
ZACUBE-2                
1 43907U 18111AH  22209.96604862  .00005603  00000+0  20460-3 0  9999
2 43907  97.1865  94.7948 0017918 295.0471 159.1810 15.28358862199637
MICRODRAGON             
1 43935U 19003D   22209.86291315  .00003489  00000+0  13675-3 0  9995
2 43935  97.1343 238.1195 0017491  33.4858 326.7483 15.26264547196017
AOBA VELOX-IV           
1 43940U 19003J   22209.91970738  .00017220  00000+0  43760-3 0  9996
2 43940  97.1226 244.5904 0016013   1.7151 358.4147 15.39558361196502
M6P                     
1 44109U 19018AF  22209.81713394  .00008576  00000+0  20336-3 0  9990
2 44109  97.3961 294.4235 0045095 339.9727  19.9748 15.40907349185821
FORMOSAT 7-4            
1 44350U 19036M   22209.08402884  .00002252  00000+0  11544-3 0  9992
2 44350  24.0000 104.1127 0005623 205.6664 154.3561 15.09608567169610
PAINANI 1               
1 44365U 19037A   22209.52840967  .00027790  00000+0  37918-3 0  9993
2 44365  44.9974 136.9842 0009298 129.6728 230.4987 15.56996348173636
METEOR-M2 2             
1 44387U 19038A   22209.89737509  .00000007  00000+0  22575-4 0  9991
2 44387  98.7251 170.3492 0001954 123.2265 236.9098 14.23715817159300
VDNH-80                 
1 44392U 19038G   22209.89809216  .00005752  00000+0  28759-3 0  9993
2 44392  97.6358 180.1681 0018851 354.8998  32.2469 15.17694420169131
D-STAR ONE (LIGHTSAT)   
1 44393U 19038H   22209.44259582  .00004627  00000+0  23175-3 0  9997
2 44393  97.6374 179.6010 0019094 356.6114   3.4987 15.17739792169259
AMGU-1 (AMURSAT)        
1 44394U 19038J   22209.96660950  .00006273  00000+0  31043-3 0  9992
2 44394  97.6411 180.0848 0018384 355.4081   4.6936 15.18024423169333
DOT-1                   
1 44399U 19038P   22209.45730764  .00003371  00000+0  18073-3 0  9996
2 44399  97.6416 178.3237 0022715   2.1386 357.9938 15.15470285169156
SOKRAT                  
1 44404U 19038U   22209.70188869  .00004675  00000+0  23369-3 0  9996
2 44404  97.6362 179.4701 0019231 357.6402   2.4737 15.17802289169274
